1 29499U 06044A   16037.92482839 +.00000051 +00000-0 +43462-4 0  9998,2 29499 098.7146 098.7229 0001870 134.5157 339.4622 14.21492053482452
1 29499U 06044A   16038.19718203  .00000049  00000-0  42367-4 0  9995,2 29499  98.7146  98.9918 0001876 134.1946 292.7316 14.21492104482679
1 29499U 06044A   16038.90503130 +.00000058 +00000-0 +46393-4 0  9998,2 29499 098.7144 099.6906 0001903 133.1392 314.0715 14.21492284482598
1 29499U 06044A   16039.54834948  .00000074  00000-0  53996-4 0  9998,2 29499  98.7143 100.3257 0001918 132.1449   5.3074 14.21492523482868
1 29499U 06044A   16039.96843898 +.00000071 +00000-0 +52317-4 0  9991,2 29499 098.7142 100.7404 0001932 131.4538 354.5405 14.21492579482747
1 29499U 06044A   16040.88270758  .00000064  00000-0  49246-4 0  9992,2 29499  98.7141 101.6429 0001963 130.1104 351.8983 14.21492780483052
1 29499U 06044A   16040.95390196 +.00000071 +00000-0 +52352-4 0  9999,2 29499 098.7140 101.7132 0001967 130.0174 356.1142 14.21492823482886
1 29499U 06044A   16041.93848528 +.00000056 +00000-0 +45584-4 0  9997,2 29499 098.7139 102.6851 0001993 128.5451 353.2256 14.21492979483024
1 29499U 06044A   16042.20331584  .00000053  00000-0  44490-4 0  9999,2 29499  98.7139 102.9465 0002066 126.9524 269.2682 14.21474067483244
1 29499U 06044A   16042.47782627  .00000021  00000-0  94203-5 0  9999,2 29499  98.7120 103.2177 0002065 119.7552 240.4312 14.21476276484110
1 29499U 06044A   16042.92229347 +.00000062 +00000-0 +48208-4 0  9992,2 29499 098.7137 103.6561 0002089 125.4268 347.9483 14.21474499483164
1 29499U 06044A   16043.56052258  .00000115  00000-0  72792-4 0  9992,2 29499  98.7136 104.2861 0002113 124.6546  12.8936 14.21474786483431
1 29499U 06044A   16043.90265771 +.00000078 +00000-0 +55720-4 0  9996,2 29499 098.7135 104.6238 0002119 124.1369 323.2348 14.21474793483306
1 29499U 06044A   16044.82315060  .00000055  00000-0  45163-4 0  9990,2 29499  98.7134 105.5324 0002145 122.7412 352.4202 14.21474974483611
1 29499U 06044A   16044.88183459 +.00000054 +00000-0 +44552-4 0  9991,2 29499 098.7133 105.5903 0002147 122.6545 292.6417 14.21474979483440
1 29499U 06044A   16045.86812100  .00000057  00000-0  46257-4 0  9999,2 29499  98.7131 106.5638 0002170 121.1597 298.4228 14.21475257483760
1 29499U 06044A   16045.95165686 +.00000054 +00000-0 +44818-4 0  9997,2 29499 098.7131 106.6463 0002170 121.0158 005.8046 14.21475249483599
1 29499U 06044A   16046.93557933 +.00000041 +00000-0 +38816-4 0  9993,2 29499 098.7129 107.6174 0002186 119.5449 359.4722 14.21475362483739
1 29499U 06044A   16047.20722521  .00000043  00000-0  39627-4 0  9994,2 29499  98.7129 107.8855 0002184 119.1606 309.1688 14.21475432483951
1 29499U 06044A   16047.91953856 +.00000078 +00000-0 +55657-4 0  9998,2 29499 098.7128 108.5886 0002203 118.0217 353.3813 14.21475759483874
1 29499U 06044A   16048.84036793  .00000067  00000-0  50638-4 0  9995,2 29499  98.7126 109.4975 0002227 116.6082  24.3079 14.21475915484189
1 29499U 06044A   16048.89627125 +.00000055 +00000-0 +45089-4 0  9996,2 29499 098.7126 109.5526 0002227 116.5601 310.2693 14.21475855484012
1 29499U 06044A   16049.96402869 +.00000066 +00000-0 +50229-4 0  9995,2 29499 098.7124 110.6065 0002242 114.9232 012.8731 14.21476138484169
1 29499U 06044A   16050.15520544  .00000069  00000-0  51544-4 0  9993,2 29499  98.7123 110.7952 0002245 114.7184 270.8375 14.21476200484374
1 29499U 06044A   16050.94902956 +.00000058 +00000-0 +46567-4 0  9998,2 29499 098.7122 111.5786 0002260 113.3813 012.1302 14.21476313484303
1 29499U 06044A   16051.50957512  .00000057  00000-0  45959-4 0  9992,2 29499  98.7121 112.1319 0002269 112.5064 359.8748 14.21476426484567
1 29499U 06044A   16051.93300991 +.00000050 +00000-0 +42995-4 0  9992,2 29499 098.7119 112.5497 0002278 111.9224 006.0856 14.21476447484447
1 29499U 06044A   16052.57092444  .00000054  00000-0  44696-4 0  9998,2 29499  98.7118 113.1793 0002286 110.9412  29.6349 14.21476597484713
1 29499U 06044A   16052.91735050 +.00000043 +00000-0 +39766-4 0  9993,2 29499 098.7117 113.5212 0002286 110.4148 001.9326 14.21476606484587
1 29499U 06044A   16053.82837328  .00000037  00000-0  36910-4 0  9996,2 29499  98.7115 114.4202 0002292 109.0541 342.6545 14.21476777484893
1 29499U 06044A   16053.89167788 +.00000033 +00000-0 +35244-4 0  9994,2 29499 098.7115 114.4827 0002293 108.8984 306.5772 14.21476773484724
1 29499U 06044A   16054.81805480 +.00000045 +00000-0 +40484-4 0  9990,2 29499 098.7113 115.3969 0002298 107.4931 005.8721 14.21477010484853
1 29499U 06044A   16055.15292091  .00000050  00000-0  42879-4 0  9992,2 29499  98.7112 115.7274 0002301 107.0434 278.9714 14.21477097485080
1 29499U 06044A   16055.94648325 +.00000032 +00000-0 +34560-4 0  9992,2 29499 098.7110 116.5105 0002316 105.7479 018.8862 14.21477163485012
1 29499U 06044A   16055.94648325 +.00000032 +00000-0 +34560-4 0  9992,2 29499 098.7110 116.5105 0002316 105.7479 018.8862 14.21477163485012
1 29499U 06044A   16056.21871229  .00000029  00000-0  33380-4 0  9999,2 29499  98.7110 116.7792 0002316 105.3509 331.5797 14.21477207485231
1 29499U 06044A   16056.83720946  .00000098  00000-0  44815-4 0  9997,2 29499  98.7110 117.3893 0002313 102.6581 257.5336 14.21477380485325
1 29499U 06044A   16056.93023657 +.00000025 +00000-0 +31241-4 0  9992,2 29499 098.7109 117.4813 0002327 104.3000 011.6725 14.21477278485154
1 29499U 06044A   16057.48310284  .00000038  00000-0  37480-4 0  9993,2 29499  98.7108 118.0269 0002332 103.5160 320.0531 14.21477431485411
1 29499U 06044A   16057.91395353 +.00000032 +00000-0 +34879-4 0  9994,2 29499 098.7107 118.4520 0002330 102.8643 004.2612 14.21477454485292
1 29499U 06044A   16058.55322638  .00000024  00000-0  31185-4 0  9999,2 29499  98.7106 119.0828 0002330 101.7696  34.8730 14.21477551485563
1 29499U 06044A   16058.96862072 +.00000021 +00000-0 +29484-4 0  9991,2 29499 098.7105 119.4927 0002329 101.1452 000.0036 14.21477599485441
1 29499U 06044A   16059.88518022  .00000024  00000-0  31041-4 0  9991,2 29499  98.7104 120.3972 0002332  99.7116   9.1189 14.21477768485755
1 29499U 06044A   16059.96635234 +.00000020 +00000-0 +29216-4 0  9992,2 29499 098.7103 120.4773 0002334 099.5762 064.4036 14.21477751485589
1 29499U 06044A   16060.94112446 +.00000004 +00000-0 +21997-4 0  9997,2 29499 098.7102 121.4391 0002332 098.0508 011.3354 14.21477819485720
1 29499U 06044A   16061.13671572  .00000007  00000-0  23208-4 0  9999,2 29499  98.7102 121.6321 0002327  97.7364 291.9883 14.21477863485930
1 29499U 06044A   16061.97050926 +.00000023 +00000-0 +30521-4 0  9999,2 29499 098.7100 122.4548 0002336 096.5835 237.5228 14.21478009485862
1 29499U 06044A   16062.20148131  .00000029  00000-0  33501-4 0  9999,2 29499  98.7100 122.6828 0002330  96.1761 339.2214 14.21478080486082
1 29499U 06044A   16062.89129630 +.00000030 +00000-0 +33544-4 0  9996,2 29499 098.7098 123.3634 0002336 095.2423 268.1681 14.21478156486006
1 29499U 06044A   16063.45347545  .00000019  00000-0  28845-4 0  9991,2 29499  98.7098 123.9181 0002333  94.2986 264.3398 14.21478211486251
1 29499U 06044A   16063.94229168 +.00000011 +00000-0 +24989-4 0  9992,2 29499 098.7096 124.4004 0002330 093.5451 245.1118 14.21478250486143
1 29499U 06044A   16064.53648890  .00000029  00000-0  33293-4 0  9992,2 29499  98.7096 124.9867 0002325  92.5774  45.0622 14.21478421486413
1 29499U 06044A   16064.93097222 +.00000037 +00000-0 +36737-4 0  9998,2 29499 098.7095 125.3759 0002323 092.0176 263.1813 14.21478488486289
1 29499U 06044A   16065.85872685  .00000042  00000-0  39417-4 0  9998,2 29499  98.7093 126.2913 0002317  90.6447 329.4952 14.21478644486607
1 29499U 06044A   16065.94668307 +.00000036 +00000-0 +36378-4 0  9998,2 29499 098.7092 126.3781 0002317 090.4882 059.4979 14.21478613486437
1 29499U 06044A   16066.93375881 +.00000056 +00000-0 +45592-4 0  9990,2 29499 098.7090 127.3520 0002308 089.0537 069.2682 14.21478860486577
1 29499U 06044A   16067.19928694  .00000070  00000-0  52106-4 0  9990,2 29499  98.7090 127.6139 0002302  88.5327 347.8160 14.21478976486799
1 29499U 06044A   16067.97047266 +.00000059 +00000-0 +47211-4 0  9991,2 29499 098.7088 128.3748 0002294 087.6139 332.9156 14.21479081486722
1 29499U 06044A   16068.45104264  .00000072  00000-0  53157-4 0  9998,2 29499  98.7087 128.8490 0002291  86.7987 271.5762 14.21479266486960
1 29499U 06044A   16068.89482647 +.00000067 +00000-0 +50824-4 0  9992,2 29499 098.7086 129.2868 0002281 086.1408 021.9389 14.21479340486857
1 29499U 06044A   16069.88270538  .00000058  00000-0  46438-4 0  9992,2 29499  98.7085 130.2615 0002261  84.6430  35.8828 14.21479542487176
1 29499U 06044A   16069.94986510 +.00000053 +00000-0 +44177-4 0  9996,2 29499 098.7085 130.3278 0002260 084.5206 019.4895 14.21479538487000
1 29499U 06044A   16070.93868234 +.00000056 +00000-0 +45615-4 0  9990,2 29499 098.7083 131.3033 0002253 083.0469 038.2092 14.21479760487145
1 29499U 06044A   16071.20991815  .00000052  00000-0  43676-4 0  9994,2 29499  98.7083 131.5709 0002246  82.5472 345.9282 14.21479819487365
1 29499U 06044A   16071.92253626 +.00000060 +00000-0 +47592-4 0  9994,2 29499 098.7081 132.2739 0002244 081.5725 031.5459 14.21480018487280
1 29499U 06044A   16072.48611595  .00000048  00000-0  42123-4 0  9990,2 29499  98.7081 132.8299 0002241  80.6849  34.8283 14.21480086487546
1 29499U 06044A   16072.97139022 +.00000033 +00000-0 +34988-4 0  9998,2 29499 098.7079 133.3086 0002232 080.0561 357.3636 14.21480114487433
1 29499U 06044A   16073.54599454  .00000039  00000-0  38014-4 0  9991,2 29499  98.7078 133.8755 0002219  79.2681  56.9317 14.21480275487692
1 29499U 06044A   16073.96630935 +.00000032 +00000-0 +34611-4 0  9999,2 29499 098.7077 134.2901 0002208 078.6503 047.2252 14.21480320487572
1 29499U 06044A   16074.86839617  .00000038  00000-0  37557-4 0  9995,2 29499  98.7075 135.1800 0002188  77.2110 342.3352 14.21480500487888
1 29499U 06044A   16074.95171444 +.00000046 +00000-0 +41124-4 0  9996,2 29499 098.7075 135.2622 0002185 077.1267 048.5460 14.21480539487719
